1 12952U 81053EG  21018.56093725  .00000203  00000-0  13827-3 0  9994
2 12952  82.9604  47.3479 0011025 106.9330   9.9240 13.95107064987346
1 12962U 81053EH  21019.14854673  .00000337  00000-0  23067-3 0  9992
2 12962  82.9643  91.1395 0030912 106.3415 254.1156 13.96681864984521
1 12963U 81053EJ  21018.83565745  .00000147  00000-0  12364-3 0  9994
2 12963  82.9447 212.9676 0024518  36.3067 337.2453 13.81284689973214
1 12964U 81053EK  21018.81477317  .00000035  00000-0  18698-4 0  9993
2 12964  82.9467 151.7470 0037584 296.0234 185.1086 13.80179848976323
1 12966U 81053EM  21018.44075649  .00000274  00000-0  16615-3 0  9997
2 12966  82.9478 359.8787 0031767 340.8843 146.4856 14.02762420987764
1 12967U 81114A   21018.43799144 -.00000062  00000-0  00000-0 0  9992
2 12967  14.3020 347.3631 0005347 323.9165 215.5385  1.00093913108286
1 12975U 81116A   21018.84707810 -.00000020  00000-0 -36867-4 0  9996
2 12975  73.9824  66.5333 0097559 235.9007 297.4928 12.28015749754664
1 12976U 81116B   21019.52690652 -.00000024  00000-0 -75303-4 0  9990
2 12976  73.9821  53.2416 0095051 224.5916 249.9726 12.28369580755490
1 12977U 81116C   21019.53572177 -.00000022  00000-0 -55037-4 0  9993
2 12977  73.9822  41.8790 0093689 208.8674 266.7639 12.28698797755957
1 12978U 81116D   21019.49628309 -.00000020  00000-0 -37007-4 0  9993
2 12978  73.9819  25.8268 0090290 192.5909 284.1198 12.29177320756636
1 12979U 81116E   21019.43576862 -.00000021  00000-0 -47552-4 0  9991
2 12979  73.9822   7.3504 0087458 170.8975 303.3442 12.29708999757395
1 12980U 81116F   21019.39103962 -.00000019  00000-0 -32978-4 0  9998
2 12980  73.9831 354.0367 0085100 154.8124 359.8229 12.30105216757952
1 12981U 81116G   21018.89839851  .00000004  00000-0  15979-3 0  9999
2 12981  73.9845 329.6878 0081687 124.6102 291.3857 12.30824425739126
1 12982U 81116H   21018.89611036  .00000002  00000-0  14054-3 0  9994
2 12982  73.9839 302.3709 0076056  97.8322 325.8064 12.31615844759804
1 12983U 81116J   21018.82610139  .00000066  00000-0  72285-3 0  9991
2 12983  73.9820 179.5909 0114769 352.9198 110.6970 12.24783807484573
1 12984U 81016F   21018.30821054 -.00000763  00000-0  00000-0 0  9992
2 12984  66.7209 160.2136 6570679  25.9613 355.6555  2.02672877289926
1 12987U 81117A   21018.81627468  .00000668  00000-0  41073-4 0  9998
2 12987  82.5182  43.6579 0016219 167.4427 192.7209 15.08271001129871
1 12988U 81117B   21019.20308556  .00000070  00000-0  53816-5 0  9993
2 12988  82.5251 282.5505 0017750 187.9382 286.3472 14.84794062114494
1 12992U 81016H   21017.66441584  .00000310  00000-0  00000-0 0  9992
2 12992  66.6521 165.9154 6550872  27.7495 355.3075  2.02510621191760
1 12993U 81071E   21013.35198640 -.00000158  00000-0  00000-0 0  9999
2 12993  66.7332 232.1292 5950986  44.6638   0.9778  1.97873336199015
1 12994U 81119A   21018.61633841 -.00000070  00000-0  00000-0 0  9997
2 12994  13.9074 342.0919 0026896 209.3822 161.4876  0.99469462107051
1 12996U 77092J   21018.84605609 -.00000347  00000-0  00000-0 0  9997
2 12996   9.2265 300.6383 0011001 247.4079   2.0291  1.00046994 64740
1 12997U 81120A   21019.51332503  .00000001  00000-0 -89059-4 0  9992
2 12997  82.9593 279.8153 0059174  81.1117  91.6440 12.15826590734979
1 12998U 81120B   21018.73618084  .00000093  00000-0  99297-3 0  9991
2 12998  82.9587 110.5481 0019264 198.7678 275.4593 12.03159094716595
1 12999U 81120C   21018.66225392  .00000050  00000-0  47326-3 0  9999
2 12999  82.9592  79.4274 0014883  53.7724  67.6225 12.05273686719580
1 13000U 81120D   21018.88122586 -.00000117  00000-0 -14384-2 0  9991
2 13000  82.9592  57.2978 0017196 277.2982 256.7413 12.06878996721914
1 13001U 81120E   21018.80859059 -.00000055  00000-0 -71936-3 0  9994
2 13001  82.9593  24.4977 0024757 130.8854  43.2068 12.08908021724748
1 13002U 81120F   21018.88882806  .00000006  00000-0 -34829-4 0  9995
2 13002  82.9614 311.1787 0050807 209.3158 211.3657 12.13802231731812
1 13003U 81120G   21019.47713495  .00000023  00000-0  19450-3 0  9999
2 13003  82.9538 276.7269 0081730 177.8881 355.3782 11.91494257700410
1 13007U 81119B   21018.82973292  .00004160  00000-0  18887-3 0  9991
2 13007  23.5435 176.6586 3034734 296.6262  35.5656  9.28188842996869
1 13010U 81122A   21018.64835406 -.00000236  00000-0  00000-0 0  9999
2 13010  14.3298 341.7263 0112130 219.5027 324.5436  0.95039975 92582
1 13011U 81122B   21018.20997139  .00000232  00000-0  15926-3 0  9995
2 13011  10.5366 285.7118 6600084  86.4025 341.1312  3.15664996297226
1 13012U 81123A   21017.88347139 -.00001524  00000-0  00000+0 0  9998
2 13012  63.0621 356.3412 7299160 249.1959  23.6903  2.00669633286301
1 13016U 81123D   21019.47746205  .00002943  00000-0  54653-3 0  9998
2 13016  62.7561  38.1644 7248798 258.1084 162.7759  2.33285249313078
1 13017U 81053EP  21018.77691838  .00000254  00000-0  17354-3 0  9994
2 13017  82.9318  17.6840 0032932 179.4254 355.4591 13.95857195981061
1 13018U 81053EQ  21018.75838222  .00000257  00000-0  19317-3 0  9997
2 13018  82.6764 127.3186 0057418 168.1311 344.3707 13.90163140970509
1 13019U 81053ER  21018.87109598  .00000591  00000-0  42840-3 0  9996
2 13019  82.9449 166.9984 0080103 262.6033 250.8011 13.93450559970635
1 13020U 81053ES  21018.81377941  .00000046  00000-0  31183-4 0  9995
2 13020  82.6933 304.9501 0115447 265.2627 147.4511 13.76808149958364
1 13021U 81053ET  21019.40967303  .00000403  00000-0  26537-3 0  9992
2 13021  83.1484 335.4582 0021645 226.5885 259.1364 13.99447253983244
1 13022U 81053EU  21019.54461005  .00000254  00000-0  12224-3 0  9998
2 13022  82.9171  36.0463 0047526 145.7715 336.5439 14.14439955  6198
1 13024U 81053EW  21018.98530358 -.00000708  00000-0 -48696-3 0  9993
2 13024  82.9300 354.8247 0048513  87.9687 331.5839 14.00124128983626
1 13026U 81053EX  21019.07666127  .00000982  00000-0  33850-3 0  9998
2 13026  82.9387  40.6604 0015267 257.3238 155.2062 14.34999332  9537
1 13027U 82001A   21018.92721527  .00000000  00000-0  91011-5 0  9998
2 13027  74.0463 185.9631 0025235 260.5932  99.2368 14.36694720 44081
1 13028U 82001B   21019.05068502  .00000053  00000-0  26075-4 0  9996
2 13028  74.0419 131.8428 0020882 249.9794 109.9112 14.38414657 45759
1 13029U 82001C   21018.86098784  .00000256  00000-0  57844-4 0  9993
2 13029  73.9741 312.2301 0008127 143.5261 271.7666 14.61377173  6449
1 13030U 82001D   21018.85672900  .00000418  00000-0  56623-4 0  9996
2 13030  74.0201 260.8963 0014037 278.7618 206.1323 14.82457334 76259
1 13033U 82003A   21018.86325671  .00000028  00000-0  13971-4 0  9998
2 13033  82.9418 184.5315 0031099 284.7671 192.4320 13.73242727955051
1 13034U 82003B   21018.89954767 -.00000053  00000-0 -71355-4 0  9996
2 13034  82.9387 144.0867 0033146 138.7578 336.7374 13.75287418957466
1 13035U 82004A   21017.50199905  .00000094  00000-0  00000-0 0  9998
2 13035  14.6945 350.9227 0026951 148.4969 211.6902  0.99586844105522
1 13053U 81053EY  21018.58459590  .00000300  00000-0  32209-3 0  9998
2 13053  83.0768  41.2931 0122868 157.8739 322.5381 13.67140565953181
1 13056U 82009A   21018.71290875 -.00000331  00000-0  00000-0 0  9993
2 13056  11.4671 315.6549 0026475 297.4348 259.2414  0.99946132 98873
1 13065U 82012A   21019.17424461 -.00000017  00000-0 -32575-4 0  9996
2 13065  82.9007 352.8270 0042022 270.0318  89.6023 13.75536473953280
1 13066U 82012B   21018.87084685  .00000008  00000-0 -78919-5 0  9995
2 13066  82.8983 318.7747 0043788 164.5055 248.7615 13.77195982955496
1 13067U 82013A   21018.55283045  .00000710  00000-0  30759-4 0  9991
2 13067  81.1853  43.2979 0004455  80.4840 279.6894 15.21121533127055
1 13068U 82013B   21019.14835906  .00000795  00000-0  50572-4 0  9995
2 13068  81.2044 163.9535 0021548 304.1976  55.7206 15.07554570121122
1 13069U 82014A   21018.83313413 -.00000277  00000-0  00000-0 0  9999
2 13069  14.5949 350.3253 0003590 327.3729 207.7040  0.99768086 26735
1 13070U 82015A   21018.78276322 -.00000021  00000-0 -51512-3 0  9998
2 13070  62.5300 285.7772 7364162 278.9474  11.6961  2.00912704284932
1 13073U 81053EZ  21018.87449603  .00000055  00000-0  42795-4 0  9995
2 13073  82.9402 316.2729 0087241 186.5241 235.4085 13.71772070974451
1 13074U 81053FA  21018.62012583  .00000162  00000-0  13651-3 0  9999
2 13074  82.9454 221.3193 0030797  70.8363 346.8075 13.81832698983476
1 13075U 82015D   21017.85948458  .00000675  00000-0  49455-3 0  9992
2 13075  62.8082  10.7200 7537992 271.7788  12.2588  1.97725377279996
1 13080U 82016A   21019.35573524  .00000222  00000-0  00000+0 0  9991
2 13080  67.6761 126.7794 6567029   9.9495 358.3709  2.00901651195198
1 13083U 82017A   21019.04917028 -.00000037  00000-0  00000+0 0  9997
2 13083  13.9895 342.4567 0013728 212.1741 325.3224  0.99227379122196
1 13086U 82019A   21018.84560667 -.00000012  00000-0  00000-0 0  9996
2 13086  13.1869 325.9542 0001976 304.5963 234.8894  0.98188013  6261
1 13089U 82019B   21018.30642374 -.00000326  00000-0  00000-0 0  9994
2 13089  11.6430 320.1147 0013829  88.5799 271.6412  1.01260957  5622
1 13090U 82016D   21019.10780616  .00000580  00000-0  00000+0 0  9994
2 13090  65.9859  15.4360 7006859   9.6702 358.7107  2.03149903288476
1 13092U 82020A   21017.93219594 -.00000046  00000-0  00000-0 0  9991
2 13092  12.6217 319.6051 0031023 197.6948 332.4373  0.98531546102126
1 13110U 82024A   21018.71257020  .00000036  00000-0  21621-4 0  9993
2 13110  82.9220  83.8691 0030017  86.1067  28.5427 13.74008542946231
1 13111U 82024B   21018.83370421  .00000018  00000-0  31392-5 0  9995
2 13111  82.9236  54.8856 0040672   7.0206 166.0321 13.75868607948606
1 13113U 82025A   21018.85590944  .00000019  00000-0  34110-5 0  9996
2 13113  82.5372 232.2557 0018660  35.6862 334.8998 13.85395791962119
1 13114U 82025B   21018.86285284  .00000009  00000-0 -51071-5 0  9991
2 13114  82.5381 239.0245 0015738  67.9296 303.1939 13.84679966961651
1 13121U 82027B   21019.13472962 -.00000249  00000-0 -17223-4 0  9990
2 13121  81.1648  51.2265 0009853  50.6330 309.5766 15.09034521114801
